{"type": "FeatureCollection", "features": [ {"type": "Feature", "properties": {"norad_id": 65304, "name": "DRAGON CRS-33", "group": "stations", "lat": -20.934515006428573, "lon": -92.85640670670769, "alt_km": 420.5580966694106, "timestamp": "2025-12-27T11:23:18.614649+00:00", "meta": {"OBJECT_NAME": "DRAGON CRS-33", "OBJECT_ID": "2025-186A", "EPOCH": "2025-12-26T20:34:16.428576", "MEAN_MOTION": 15.49855582, "ECCENTRICITY": 0.00032301, "INCLINATION": 51.6319, "RA_OF_ASC_NODE": 72.5609, "ARG_OF_PERICENTER": 307.0606, "MEAN_ANOMALY": 53.0087, "EPHEMERIS_TYPE": 0, "CLASSIFICATION_TYPE": "U", "NORAD_CAT_ID": 65304, "ELEMENT_SET_NO": 999, "REV_AT_EPOCH": 11, "BSTAR": 0.00027091986, "MEAN_MOTION_DOT": 0.00014958, "MEAN_MOTION_DDOT": 0}, "tle": {"line1": "1 65304U 25186A   25360.85713459  .00014958  00000+0  27092-3 0  9997", "line2": "2 65304  51.6319  72.5609 0003230 307.0606  53.0087 15.49855582   111"}}, "geometry": {"type": "Point", "coordinates": [-92.85640670670769, -20.934515006428573]}}, {"type": "Feature", "properties": {"norad_id": 65586, "name": "PROGRESS-MS 32", "group": "stations", "lat": -20.934515488714027, "lon": -92.85640624765436, "alt_km": 420.5580966858697, "timestamp": "2025-12-27T11:23:18.614659+00:00", "meta": {"OBJECT_NAME": "PROGRESS-MS 32", "OBJECT_ID": "2025-204A", "EPOCH": "2025-12-26T20:34:16.428576", "MEAN_MOTION": 15.49855582, "ECCENTRICITY": 0.00032301, "INCLINATION": 51.6319, "RA_OF_ASC_NODE": 72.5609, "ARG_OF_PERICENTER": 307.0606, "MEAN_ANOMALY": 53.0087, "EPHEMERIS_TYPE": 0, "CLASSIFICATION_TYPE": "U", "NORAD_CAT_ID": 65586, "ELEMENT_SET_NO": 999, "REV_AT_EPOCH": 27, "BSTAR": 0.00027091986, "MEAN_MOTION_DOT": 0.00014958, "MEAN_MOTION_DDOT": 0}, "tle": {"line1": "1 65586U 25204A   25360.85713459  .00014958  00000+0  27092-3 0  9990", "line2": "2 65586  51.6319  72.5609 0003230 307.0606  53.0087 15.49855582   270"}}, "geometry": {"type": "Point", "coordinates": [-92.85640624765436, -20.934515488714027]}}, {"type": "Feature", "properties": {"norad_id": 65616, "name": "CYGNUS NG-23", "group": "stations", "lat": -20.934515971000717, "lon": -92.8564057885999, "alt_km": 420.55809670232793, "timestamp": "2025-12-27T11:23:18.614669+00:00", "meta": {"OBJECT_NAME": "CYGNUS NG-23", "OBJECT_ID": "2025-208A", "EPOCH": "2025-12-26T20:34:16.428576", "MEAN_MOTION": 15.49855582, "ECCENTRICITY": 0.00032301, "INCLINATION": 51.6319, "RA_OF_ASC_NODE": 72.5609, "ARG_OF_PERICENTER": 307.0606, "MEAN_ANOMALY": 53.0087, "EPHEMERIS_TYPE": 0, "CLASSIFICATION_TYPE": "U", "NORAD_CAT_ID": 65616, "ELEMENT_SET_NO": 999, "REV_AT_EPOCH": 22, "BSTAR": 0.00027091986, "MEAN_MOTION_DOT": 0.00014958, "MEAN_MOTION_DDOT": 0}, "tle": {"line1": "1 65616U 25208A   25360.85713459  .00014958  00000+0  27092-3 0  9998", "line2": "2 65616  51.6319  72.5609 0003230 307.0606  53.0087 15.49855582   229"}}, "geometry": {"type": "Point", "coordinates": [-92.8564057885999, -20.934515971000717]}}, {"type": "Feature", "properties": {"norad_id": 65729, "name": "DRAGONFLY", "group": "stations", "lat": 42.69715765867115, "lon": 107.01246820228943, "alt_km": 329.6384487546993, "timestamp": "2025-12-27T11:23:18.614680+00:00", "meta": {"OBJECT_NAME": "DRAGONFLY", "OBJECT_ID": "1998-067XH", "EPOCH": "2025-12-26T10:48:09.332064", "MEAN_MOTION": 15.76805342, "ECCENTRICITY": 0.0008231, "INCLINATION": 51.6248, "RA_OF_ASC_NODE": 65.3139, "ARG_OF_PERICENTER": 358.0707, "MEAN_ANOMALY": 2.026, "EPHEMERIS_TYPE": 0, "CLASSIFICATION_TYPE": "U", "NORAD_CAT_ID": 65729, "ELEMENT_SET_NO": 999, "REV_AT_EPOCH": 1532, "BSTAR": 0.0012148, "MEAN_MOTION_DOT": 0.00204396, "MEAN_MOTION_DDOT": 0}, "tle": {"line1": "1 65729U 98067XH  25360.45010801  .00204396  00000+0  12148-2 0  9995", "line2": "2 65729  51.6248  65.3139 0008231 358.0707   2.0260 15.76805342 15320"}}, "geometry": {"type": "Point", "coordinates": [107.01246820228943, 42.69715765867115]}}, {"type": "Feature", "properties": {"norad_id": 65731, "name": "1998-067XK", "group": "stations", "lat": 40.89425244246748, "lon": 105.65048628067234, "alt_km": 356.65644924667504, "timestamp": "2025-12-27T11:23:18.614690+00:00", "meta": {"OBJECT_NAME": "1998-067XK", "OBJECT_ID": "1998-067XK", "EPOCH": "2025-12-26T21:23:13.987104", "MEAN_MOTION": 15.68524225, "ECCENTRICITY": 0.0005094, "INCLINATION": 51.628, "RA_OF_ASC_NODE": 65.2916, "ARG_OF_PERICENTER": 333.5043, "MEAN_ANOMALY": 26.5692, "EPHEMERIS_TYPE": 0, "CLASSIFICATION_TYPE": "U", "NORAD_CAT_ID": 65731, "ELEMENT_SET_NO": 999, "REV_AT_EPOCH": 1536, "BSTAR": 0.0010262, "MEAN_MOTION_DOT": 0.00119786, "MEAN_MOTION_DDOT": 0}, "tle": {"line1": "1 65731U 98067XK  25360.89113411  .00119786  00000+0  10262-2 0  9990", "line2": "2 65731  51.6280  65.2916 0005094 333.5043  26.5692 15.68524225 15369"}}, "geometry": {"type": "Point", "coordinates": [105.65048628067234, 40.89425244246748]}}, {"type": "Feature", "properties": {"norad_id": 65732, "name": "RSP-03", "group": "stations", "lat": -21.165429490360868, "lon": -100.89448613270014, "alt_km": 357.55075444606155, "timestamp": "2025-12-27T11:23:18.614702+00:00", "meta": {"OBJECT_NAME": "RSP-03", "OBJECT_ID": "1998-067XL", "EPOCH": "2025-12-27T04:24:34.201152", "MEAN_MOTION": 15.72475718, "ECCENTRICITY": 0.0006157, "INCLINATION": 51.626, "RA_OF_ASC_NODE": 62.7293, "ARG_OF_PERICENTER": 342.7468, "MEAN_ANOMALY": 17.332, "EPHEMERIS_TYPE": 0, "CLASSIFICATION_TYPE": "U", "NORAD_CAT_ID": 65732, "ELEMENT_SET_NO": 999, "REV_AT_EPOCH": 1543, "BSTAR": 0.001234, "MEAN_MOTION_DOT": 0.00171198, "MEAN_MOTION_DDOT": 0}, "tle": {"line1": "1 65732U 98067XL  25361.18372918  .00171198  00000+0  12340-2 0  9997", "line2": "2 65732  51.6260  62.7293 0006157 342.7468  17.3320 15.72475718 15433"}}, "geometry": {"type": "Point", "coordinates": [-100.89448613270014, -21.165429490360868]}}, {"type": "Feature", "properties": {"norad_id": 65733, "name": "GHS-01", "group": "stations", "lat": 7.453585764614792, "lon": -126.89540248894615, "alt_km": 330.70281334707124, "timestamp": "2025-12-27T11:23:18.614712+00:00", "meta": {"OBJECT_NAME": "GHS-01", "OBJECT_ID": "1998-067XM", "EPOCH": "2025-12-26T21:01:30.345024", "MEAN_MOTION": 15.81574264, "ECCENTRICITY": 0.0009494, "INCLINATION": 51.6277, "RA_OF_ASC_NODE": 62.1658, "ARG_OF_PERICENTER": 4.8401, "MEAN_ANOMALY": 355.2691, "EPHEMERIS_TYPE": 0, "CLASSIFICATION_TYPE": "U", "NORAD_CAT_ID": 65733, "ELEMENT_SET_NO": 999, "REV_AT_EPOCH": 1541, "BSTAR": 0.0015055, "MEAN_MOTION_DOT": 0.00319127, "MEAN_MOTION_DDOT": 0}, "tle": {"line1": "1 65733U 98067XM  25360.87604566  .00319127  00000+0  15055-2 0  9992", "line2": "2 65733  51.6277  62.1658 0009494   4.8401 355.2691 15.81574264 15410"}}, "geometry": {"type": "Point", "coordinates": [-126.89540248894615, 7.453585764614792]}}, {"type": "Feature", "properties": {"norad_id": 65941, "name": "YOTSUBA-KULOVER", "group": "stations", "lat": -0.898619196305627, "lon": -113.47876880214483, "alt_km": 386.01779985687426, "timestamp": "2025-12-27T11:23:18.614745+00:00", "meta": {"OBJECT_NAME": "YOTSUBA-KULOVER", "OBJECT_ID": "1998-067XN", "EPOCH": "2025-12-26T14:38:51.631584", "MEAN_MOTION": 15.61332207, "ECCENTRICITY": 0.00025713, "INCLINATION": 51.6289, "RA_OF_ASC_NODE": 70.1673, "ARG_OF_PERICENTER": 5.6559, "MEAN_ANOMALY": 354.4463, "EPHEMERIS_TYPE": 0, "CLASSIFICATION_TYPE": "U", "NORAD_CAT_ID": 65941, "ELEMENT_SET_NO": 999, "REV_AT_EPOCH": 1202, "BSTAR": 0.00084261791, "MEAN_MOTION_DOT": 0.0007325, "MEAN_MOTION_DDOT": 0}, "tle": {"line1": "1 65941U 98067XN  25360.61031981  .00073250  00000+0  84262-3 0  9991", "line2": "2 65941  51.6289  70.1673 0002571   5.6559 354.4463 15.61332207 12021"}}, "geometry": {"type": "Point", "coordinates": [-113.47876880214483, -0.898619196305627]}}, {"type": "Feature", "properties": {"norad_id": 65942, "name": "BOTAN", "group": "stations", "lat": 0.8522837856350006, "lon": 65.35823115907709, "alt_km": 368.37349800303673, "timestamp": "2025-12-27T11:23:18.614756+00:00", "meta": {"OBJECT_NAME": "BOTAN", "OBJECT_ID": "1998-067XP", "EPOCH": "2025-12-26T21:36:00.133056", "MEAN_MOTION": 15.65926329, "ECCENTRICITY": 0.00036204, "INCLINATION": 51.6276, "RA_OF_ASC_NODE": 67.6002, "ARG_OF_PERICENTER": 350.1731, "MEAN_ANOMALY": 9.9193, "EPHEMERIS_TYPE": 0, "CLASSIFICATION_TYPE": "U", "NORAD_CAT_ID": 65942, "ELEMENT_SET_NO": 999, "REV_AT_EPOCH": 1208, "BSTAR": 0.0012627246, "MEAN_MOTION_DOT": 0.00132903, "MEAN_MOTION_DDOT": 0}, "tle": {"line1": "1 65942U 98067XP  25360.90000154  .00132903  00000+0  12627-2 0  9998", "line2": "2 65942  51.6276  67.6002 0003620 350.1731   9.9193 15.65926329 12087"}}, "geometry": {"type": "Point", "coordinates": [65.35823115907709, 0.8522837856350006]}}, {"type": "Feature", "properties": {"norad_id": 65943, "name": "E-KAGAKU-1", "group": "stations", "lat": -0.5630808833417609, "lon": -113.73850644025029, "alt_km": 385.1481749880086, "timestamp": "2025-12-27T11:23:18.614767+00:00", "meta": {"OBJECT_NAME": "E-KAGAKU-1", "OBJECT_ID": "1998-067XQ", "EPOCH": "2025-12-26T11:34:38.215200", "MEAN_MOTION": 15.61326456, "ECCENTRICITY": 0.00014737, "INCLINATION": 51.6304, "RA_OF_ASC_NODE": 70.8185, "ARG_OF_PERICENTER": 333.5123, "MEAN_ANOMALY": 26.5795, "EPHEMERIS_TYPE": 0, "CLASSIFICATION_TYPE": "U", "NORAD_CAT_ID": 65943, "ELEMENT_SET_NO": 999, "REV_AT_EPOCH": 1200, "BSTAR": 0.0007949653, "MEAN_MOTION_DOT": 0.00069021, "MEAN_MOTION_DDOT": 0}, "tle": {"line1": "1 65943U 98067XQ  25360.48238675  .00069021  00000+0  79497-3 0  9992", "line2": "2 65943  51.6304  70.8185 0001473 333.5123  26.5795 15.61326456 12008"}}, "geometry": {"type": "Point", "coordinates": [-113.73850644025029, -0.5630808833417609]}}]}